INMARSAT 6-F2           
1 55683U 23022A   23054.39120490 -.00000107  00000+0  00000+0 0  9995
2 55683  26.9872  50.8814 7527590 167.9400 356.6810  1.91753057    53
FALCON 9 R/B            
1 55684U 23022B   23053.68664978  .00002717  00000+0  56638-3 0  9991
2 55684  27.0075  51.0033 7585231 167.7098 235.9792  1.92274560    61
DRUMS TARGET-1          
1 55685U 21102M   23054.96114451  .00016541  00000+0  11772-2 0  9996
2 55685  97.5010 111.7333 0021137  88.2408 272.1239 15.04521846   840
2023-023A               
1 55686U 23023A   23054.65327030 -.00090925  00000+0 -14966-1 0  9993
2 55686  27.8958 327.5208 7292351 179.4456 119.0028  2.27947088    01
2023-023B               
1 55687U 23023B   23054.79268122  .00001708  38332-7  10000-3 0  9998
2 55687  27.8728 327.3362 7230047 178.9324 243.7190  2.37958926    18
